{"type": "FeatureCollection", "features": [ {"type": "Feature", "properties": {"norad_id": 41836, "name": "HIMAWARI-9", "group": "weather", "lat": -0.025344630260574954, "lon": -22.107979852042646, "alt_km": 35783.706426044446, "timestamp": "2025-12-12T07:43:20.145839+00:00", "meta": {"OBJECT_NAME": "HIMAWARI-9", "OBJECT_ID": "2016-064A", "EPOCH": "2025-12-11T21:01:46.862976", "MEAN_MOTION": 1.00273832, "ECCENTRICITY": 0.00012135, "INCLINATION": 0.0342, "RA_OF_ASC_NODE": 93.1676, "ARG_OF_PERICENTER": 175.9777, "MEAN_ANOMALY": 267.9081, "EPHEMERIS_TYPE": 0, "CLASSIFICATION_TYPE": "U", "NORAD_CAT_ID": 41836, "ELEMENT_SET_NO": 999, "REV_AT_EPOCH": 3333, "BSTAR": 0, "MEAN_MOTION_DOT": -2.66e-06, "MEAN_MOTION_DDOT": 0}, "tle": {"line1": "1 41836U 16064A   25345.87623684 -.00000266  00000+0  00000+0 0  9995", "line2": "2 41836   0.0342  93.1676 0001213 175.9777 267.9081  1.00273832 33336"}}, "geometry": {"type": "Point", "coordinates": [-22.107979852042646, -0.025344630260574954]}}, {"type": "Feature", "properties": {"norad_id": 41866, "name": "GOES 16", "group": "weather", "lat": 0.006156603043922315, "lon": 92.41800242379378, "alt_km": 35799.78373892744, "timestamp": "2025-12-12T07:43:20.145851+00:00", "meta": {"OBJECT_NAME": "GOES 16", "OBJECT_ID": "2016-071A", "EPOCH": "2025-12-11T23:17:13.425792", "MEAN_MOTION": 1.00271655, "ECCENTRICITY": 0.00032758, "INCLINATION": 0.0619, "RA_OF_ASC_NODE": 105.8123, "ARG_OF_PERICENTER": 156.8851, "MEAN_ANOMALY": 62.8581, "EPHEMERIS_TYPE": 0, "CLASSIFICATION_TYPE": "U", "NORAD_CAT_ID": 41866, "ELEMENT_SET_NO": 999, "REV_AT_EPOCH": 3322, "BSTAR": 0, "MEAN_MOTION_DOT": -8.2e-07, "MEAN_MOTION_DDOT": 0}, "tle": {"line1": "1 41866U 16071A   25345.97029428 -.00000082  00000+0  00000+0 0  9999", "line2": "2 41866   0.0619 105.8123 0003275 156.8851  62.8581  1.00271655 33221"}}, "geometry": {"type": "Point", "coordinates": [92.41800242379378, 0.006156603043922315]}}, {"type": "Feature", "properties": {"norad_id": 41882, "name": "FENGYUN 4A", "group": "weather", "lat": -1.5835708280498482, "lon": -39.02363111102559, "alt_km": 35787.65976208291, "timestamp": "2025-12-12T07:43:20.145864+00:00", "meta": {"OBJECT_NAME": "FENGYUN 4A", "OBJECT_ID": "2016-077A", "EPOCH": "2025-12-11T22:39:37.492416", "MEAN_MOTION": 1.0027003, "ECCENTRICITY": 0.00049021, "INCLINATION": 1.8474, "RA_OF_ASC_NODE": 82.3949, "ARG_OF_PERICENTER": 146.0972, "MEAN_ANOMALY": 316.1466, "EPHEMERIS_TYPE": 0, "CLASSIFICATION_TYPE": "U", "NORAD_CAT_ID": 41882, "ELEMENT_SET_NO": 999, "REV_AT_EPOCH": 3305, "BSTAR": 0, "MEAN_MOTION_DOT": -3.48e-06, "MEAN_MOTION_DDOT": 0}, "tle": {"line1": "1 41882U 16077A   25345.94418394 -.00000348  00000+0  00000+0 0  9999", "line2": "2 41882   1.8474  82.3949 0004902 146.0972 316.1466  1.00270030 33059"}}, "geometry": {"type": "Point", "coordinates": [-39.02363111102559, -1.5835708280498482]}}, {"type": "Feature", "properties": {"norad_id": 41884, "name": "CYGFM05", "group": "weather", "lat": -5.54364685715301, "lon": -122.15340858932296, "alt_km": 416.63706112734417, "timestamp": "2025-12-12T07:43:20.145875+00:00", "meta": {"OBJECT_NAME": "CYGFM05", "OBJECT_ID": "2016-078A", "EPOCH": "2025-12-11T12:19:44.236416", "MEAN_MOTION": 15.47567747, "ECCENTRICITY": 0.00099326, "INCLINATION": 34.9601, "RA_OF_ASC_NODE": 55.1392, "ARG_OF_PERICENTER": 172.194, "MEAN_ANOMALY": 187.8938, "EPHEMERIS_TYPE": 0, "CLASSIFICATION_TYPE": "U", "NORAD_CAT_ID": 41884, "ELEMENT_SET_NO": 999, "REV_AT_EPOCH": 49957, "BSTAR": 0.00058459472, "MEAN_MOTION_DOT": 0.00031157, "MEAN_MOTION_DDOT": 0}, "tle": {"line1": "1 41884U 16078A   25345.51370644  .00031157  00000+0  58459-3 0  9996", "line2": "2 41884  34.9601  55.1392 0009932 172.1940 187.8938 15.47567747499573"}}, "geometry": {"type": "Point", "coordinates": [-122.15340858932296, -5.54364685715301]}}, {"type": "Feature", "properties": {"norad_id": 41885, "name": "CYGFM04", "group": "weather", "lat": 31.184061129592834, "lon": 84.77059292086372, "alt_km": 414.87650794445744, "timestamp": "2025-12-12T07:43:20.145887+00:00", "meta": {"OBJECT_NAME": "CYGFM04", "OBJECT_ID": "2016-078B", "EPOCH": "2025-12-11T11:21:10.464192", "MEAN_MOTION": 15.50277122, "ECCENTRICITY": 0.00092904, "INCLINATION": 34.9354, "RA_OF_ASC_NODE": 30.2184, "ARG_OF_PERICENTER": 199.3234, "MEAN_ANOMALY": 160.7137, "EPHEMERIS_TYPE": 0, "CLASSIFICATION_TYPE": "U", "NORAD_CAT_ID": 41885, "ELEMENT_SET_NO": 999, "REV_AT_EPOCH": 49974, "BSTAR": 0.00063588717, "MEAN_MOTION_DOT": 0.00037316, "MEAN_MOTION_DDOT": 0}, "tle": {"line1": "1 41885U 16078B   25345.47303778  .00037316  00000+0  63589-3 0  9999", "line2": "2 41885  34.9354  30.2184 0009290 199.3234 160.7137 15.50277122499745"}}, "geometry": {"type": "Point", "coordinates": [84.77059292086372, 31.184061129592834]}}, {"type": "Feature", "properties": {"norad_id": 41886, "name": "CYGFM02", "group": "weather", "lat": 33.69620521614739, "lon": 95.72310501732797, "alt_km": 410.3399304560344, "timestamp": "2025-12-12T07:43:20.145897+00:00", "meta": {"OBJECT_NAME": "CYGFM02", "OBJECT_ID": "2016-078C", "EPOCH": "2025-12-11T11:19:26.384160", "MEAN_MOTION": 15.51650862, "ECCENTRICITY": 0.00109769, "INCLINATION": 34.9444, "RA_OF_ASC_NODE": 28.569, "ARG_OF_PERICENTER": 198.8221, "MEAN_ANOMALY": 161.2096, "EPHEMERIS_TYPE": 0, "CLASSIFICATION_TYPE": "U", "NORAD_CAT_ID": 41886, "ELEMENT_SET_NO": 999, "REV_AT_EPOCH": 49987, "BSTAR": 0.00064646241, "MEAN_MOTION_DOT": 0.00039891, "MEAN_MOTION_DDOT": 0}, "tle": {"line1": "1 41886U 16078C   25345.47183315  .00039891  00000+0  64646-3 0  9998", "line2": "2 41886  34.9444  28.5690 0010976 198.8221 161.2096 15.51650862499872"}}, "geometry": {"type": "Point", "coordinates": [95.72310501732797, 33.69620521614739]}}, {"type": "Feature", "properties": {"norad_id": 41887, "name": "CYGFM01", "group": "weather", "lat": -27.23657287521158, "lon": -80.29234563699602, "alt_km": 420.58809455259416, "timestamp": "2025-12-12T07:43:20.145908+00:00", "meta": {"OBJECT_NAME": "CYGFM01", "OBJECT_ID": "2016-078D", "EPOCH": "2025-12-11T13:41:51.421056", "MEAN_MOTION": 15.48144651, "ECCENTRICITY": 0.00094971, "INCLINATION": 34.9432, "RA_OF_ASC_NODE": 57.1248, "ARG_OF_PERICENTER": 164.4274, "MEAN_ANOMALY": 195.6741, "EPHEMERIS_TYPE": 0, "CLASSIFICATION_TYPE": "U", "NORAD_CAT_ID": 41887, "ELEMENT_SET_NO": 999, "REV_AT_EPOCH": 49952, "BSTAR": 0.00049978475, "MEAN_MOTION_DOT": 0.00027156, "MEAN_MOTION_DDOT": 0}, "tle": {"line1": "1 41887U 16078D   25345.57073404  .00027156  00000+0  49978-3 0  9999", "line2": "2 41887  34.9432  57.1248 0009497 164.4274 195.6741 15.48144651499520"}}, "geometry": {"type": "Point", "coordinates": [-80.29234563699602, -27.23657287521158]}}, {"type": "Feature", "properties": {"norad_id": 41888, "name": "CYGFM08", "group": "weather", "lat": -34.36165258340434, "lon": -43.059826860008386, "alt_km": 419.7378035096144, "timestamp": "2025-12-12T07:43:20.145919+00:00", "meta": {"OBJECT_NAME": "CYGFM08", "OBJECT_ID": "2016-078E", "EPOCH": "2025-12-11T11:57:53.666784", "MEAN_MOTION": 15.49345459, "ECCENTRICITY": 0.00113806, "INCLINATION": 34.9463, "RA_OF_ASC_NODE": 40.6034, "ARG_OF_PERICENTER": 187.8178, "MEAN_ANOMALY": 172.2368, "EPHEMERIS_TYPE": 0, "CLASSIFICATION_TYPE": "U", "NORAD_CAT_ID": 41888, "ELEMENT_SET_NO": 999, "REV_AT_EPOCH": 49974, "BSTAR": 0.00063122143, "MEAN_MOTION_DOT": 0.00035861, "MEAN_MOTION_DDOT": 0}, "tle": {"line1": "1 41888U 16078E   25345.49853781  .00035861  00000+0  63122-3 0  9994", "line2": "2 41888  34.9463  40.6034 0011380 187.8178 172.2368 15.49345459499741"}}, "geometry": {"type": "Point", "coordinates": [-43.059826860008386, -34.36165258340434]}}, {"type": "Feature", "properties": {"norad_id": 41890, "name": "CYGFM07", "group": "weather", "lat": -34.853465994383605, "lon": -70.10381273719116, "alt_km": 414.9255367823516, "timestamp": "2025-12-12T07:43:20.145930+00:00", "meta": {"OBJECT_NAME": "CYGFM07", "OBJECT_ID": "2016-078G", "EPOCH": "2025-12-11T12:01:43.381056", "MEAN_MOTION": 15.49925306, "ECCENTRICITY": 0.00097414, "INCLINATION": 34.9484, "RA_OF_ASC_NODE": 29.5736, "ARG_OF_PERICENTER": 205.3606, "MEAN_ANOMALY": 154.6639, "EPHEMERIS_TYPE": 0, "CLASSIFICATION_TYPE": "U", "NORAD_CAT_ID": 41890, "ELEMENT_SET_NO": 999, "REV_AT_EPOCH": 49976, "BSTAR": 0.00063492627, "MEAN_MOTION_DOT": 0.00036799, "MEAN_MOTION_DDOT": 0}, "tle": {"line1": "1 41890U 16078G   25345.50119654  .00036799  00000+0  63493-3 0  9995", "line2": "2 41890  34.9484  29.5736 0009741 205.3606 154.6639 15.49925306499764"}}, "geometry": {"type": "Point", "coordinates": [-70.10381273719116, -34.853465994383605]}}, {"type": "Feature", "properties": {"norad_id": 41891, "name": "CYGFM03", "group": "weather", "lat": 34.170622799855266, "lon": 129.64650496324688, "alt_km": 411.72962433665, "timestamp": "2025-12-12T07:43:20.145941+00:00", "meta": {"OBJECT_NAME": "CYGFM03", "OBJECT_ID": "2016-078H", "EPOCH": "2025-12-11T11:11:26.566080", "MEAN_MOTION": 15.49822944, "ECCENTRICITY": 0.00091164, "INCLINATION": 34.9435, "RA_OF_ASC_NODE": 31.7202, "ARG_OF_PERICENTER": 192.4174, "MEAN_ANOMALY": 167.6324, "EPHEMERIS_TYPE": 0, "CLASSIFICATION_TYPE": "U", "NORAD_CAT_ID": 41891, "ELEMENT_SET_NO": 999, "REV_AT_EPOCH": 49973, "BSTAR": 0.00063877072, "MEAN_MOTION_DOT": 0.0003688, "MEAN_MOTION_DDOT": 0}, "tle": {"line1": "1 41891U 16078H   25345.46627970  .00036880  00000+0  63877-3 0  9993", "line2": "2 41891  34.9435  31.7202 0009116 192.4174 167.6324 15.49822944499732"}}, "geometry": {"type": "Point", "coordinates": [129.64650496324688, 34.170622799855266]}}]}